[{"OBJECT_NAME":"TECHSAT 1B (GO-32)","OBJECT_ID":"1998-043D","EPOCH":"2026-03-09T22:49:10.085952","MEAN_MOTION":14.24406169,"ECCENTRICITY":0.00020687,"INCLINATION":99.0027,"RA_OF_ASC_NODE":59.2298,"ARG_OF_PERICENTER":119.2453,"MEAN_ANOMALY":240.8932,"EPHEMERIS_TYPE":0,"CLASSIFICATION_TYPE":"U","NORAD_CAT_ID":25397,"ELEMENT_SET_NO":999,"REV_AT_EPOCH":43720,"BSTAR":6.9690511e-5,"MEAN_MOTION_DOT":1.15e-6,"MEAN_MOTION_DDOT":0},{"OBJECT_NAME":"NOAA 17","OBJECT_ID":"2002-032A","EPOCH":"2026-03-09T22:57:14.158368","MEAN_MOTION":14.26189582,"ECCENTRICITY":0.00105724,"INCLINATION":98.8542,"RA_OF_ASC_NODE":33.5888,"ARG_OF_PERICENTER":280.9061,"MEAN_ANOMALY":79.0929,"EPHEMERIS_TYPE":0,"CLASSIFICATION_TYPE":"U","NORAD_CAT_ID":27453,"ELEMENT_SET_NO":999,"REV_AT_EPOCH":23284,"BSTAR":0.00015334864,"MEAN_MOTION_DOT":3.22e-6,"MEAN_MOTION_DDOT":0}]
